STARLINK-31949          
1 59891U 24100G   26068.20680872 -.00005542  00000+0 -19194-3 0  9998
2 59891  42.9998 128.0653 0001478 116.9776 243.1227 15.27593382100981
FLOCK 4G-8              
1 62613U 25009E   26068.72381419  .00013559  00000+0  50438-3 0  9996
2 62613  97.4045 151.2834 0003050 315.2538  44.8455 15.27623414 63721
